<?xml version="1.0" encoding="UTF-8"?>
<ndm xmlns:xsi="http://www.w3.org/2001/XMLSchema-instance" xsi:noNamespaceSchemaLocation="https://sanaregistry.org/r/ndmxml_unqualified/ndmxml-2.0.0-master-2.0.xsd">
<omm id="CCSDS_OMM_VERS" version="2.0">
<header><CREATION_DATE/><ORIGINATOR/></header><body><segment><metadata><OBJECT_NAME>ONEWEB-0224</OBJECT_NAME><OBJECT_ID>2021-045AD</OBJECT_ID><CENTER_NAME>EARTH</CENTER_NAME><REF_FRAME>TEME</REF_FRAME><TIME_SYSTEM>UTC</TIME_SYSTEM><MEAN_ELEMENT_THEORY>SGP4</MEAN_ELEMENT_THEORY></metadata><data><meanElements><EPOCH>2025-02-03T11:00:07.806816</EPOCH><MEAN_MOTION>13.15549306</MEAN_MOTION><ECCENTRICITY>.0003075</ECCENTRICITY><INCLINATION>87.9116</INCLINATION><RA_OF_ASC_NODE>358.5423</RA_OF_ASC_NODE><ARG_OF_PERICENTER>82.3731</ARG_OF_PERICENTER><MEAN_ANOMALY>277.7749</MEAN_ANOMALY></meanElements><tleParameters><EPHEMERIS_TYPE>0</EPHEMERIS_TYPE><CLASSIFICATION_TYPE>U</CLASSIFICATION_TYPE><NORAD_CAT_ID>48794</NORAD_CAT_ID><ELEMENT_SET_NO>999</ELEMENT_SET_NO><REV_AT_EPOCH>17870</REV_AT_EPOCH><BSTAR>-.22164E-3</BSTAR><MEAN_MOTION_DOT>-.71E-6</MEAN_MOTION_DOT><MEAN_MOTION_DDOT>0</MEAN_MOTION_DDOT></tleParameters></data></segment></body></omm>
<omm id="CCSDS_OMM_VERS" version="2.0">
<header><CREATION_DATE/><ORIGINATOR/></header><body><segment><metadata><OBJECT_NAME>ONEWEB-0233</OBJECT_NAME><OBJECT_ID>2021-045AE</OBJECT_ID><CENTER_NAME>EARTH</CENTER_NAME><REF_FRAME>TEME</REF_FRAME><TIME_SYSTEM>UTC</TIME_SYSTEM><MEAN_ELEMENT_THEORY>SGP4</MEAN_ELEMENT_THEORY></metadata><data><meanElements><EPOCH>2025-02-03T20:15:44.207424</EPOCH><MEAN_MOTION>13.15549779</MEAN_MOTION><ECCENTRICITY>.0001979</ECCENTRICITY><INCLINATION>87.9113</INCLINATION><RA_OF_ASC_NODE>358.4769</RA_OF_ASC_NODE><ARG_OF_PERICENTER>90.5338</ARG_OF_PERICENTER><MEAN_ANOMALY>269.6019</MEAN_ANOMALY></meanElements><tleParameters><EPHEMERIS_TYPE>0</EPHEMERIS_TYPE><CLASSIFICATION_TYPE>U</CLASSIFICATION_TYPE><NORAD_CAT_ID>48795</NORAD_CAT_ID><ELEMENT_SET_NO>999</ELEMENT_SET_NO><REV_AT_EPOCH>17988</REV_AT_EPOCH><BSTAR>-.17826E-3</BSTAR><MEAN_MOTION_DOT>-.54E-6</MEAN_MOTION_DOT><MEAN_MOTION_DDOT>0</MEAN_MOTION_DDOT></tleParameters></data></segment></body></omm>
<omm id="CCSDS_OMM_VERS" version="2.0">
<header><CREATION_DATE/><ORIGINATOR/></header><body><segment><metadata><OBJECT_NAME>ONEWEB-0190</OBJECT_NAME><OBJECT_ID>2021-045AF</OBJECT_ID><CENTER_NAME>EARTH</CENTER_NAME><REF_FRAME>TEME</REF_FRAME><TIME_SYSTEM>UTC</TIME_SYSTEM><MEAN_ELEMENT_THEORY>SGP4</MEAN_ELEMENT_THEORY></metadata><data><meanElements><EPOCH>2025-02-03T10:48:44.483040</EPOCH><MEAN_MOTION>13.15548817</MEAN_MOTION><ECCENTRICITY>.0002175</ECCENTRICITY><INCLINATION>87.9115</INCLINATION><RA_OF_ASC_NODE>358.5175</RA_OF_ASC_NODE><ARG_OF_PERICENTER>106.2008</ARG_OF_PERICENTER><MEAN_ANOMALY>253.9362</MEAN_ANOMALY></meanElements><tleParameters><EPHEMERIS_TYPE>0</EPHEMERIS_TYPE><CLASSIFICATION_TYPE>U</CLASSIFICATION_TYPE><NORAD_CAT_ID>48796</NORAD_CAT_ID><ELEMENT_SET_NO>999</ELEMENT_SET_NO><REV_AT_EPOCH>17879</REV_AT_EPOCH><BSTAR>-.22915E-3</BSTAR><MEAN_MOTION_DOT>-.73E-6</MEAN_MOTION_DOT><MEAN_MOTION_DDOT>0</MEAN_MOTION_DDOT></tleParameters></data></segment></body></omm>
<omm id="CCSDS_OMM_VERS" version="2.0">
<header><CREATION_DATE/><ORIGINATOR/></header><body><segment><metadata><OBJECT_NAME>ONEWEB-0236</OBJECT_NAME><OBJECT_ID>2021-045AG</OBJECT_ID><CENTER_NAME>EARTH</CENTER_NAME><REF_FRAME>TEME</REF_FRAME><TIME_SYSTEM>UTC</TIME_SYSTEM><MEAN_ELEMENT_THEORY>SGP4</MEAN_ELEMENT_THEORY></metadata><data><meanElements><EPOCH>2025-02-03T20:21:27.121248</EPOCH><MEAN_MOTION>13.15549860</MEAN_MOTION><ECCENTRICITY>.0002116</ECCENTRICITY><INCLINATION>87.9107</INCLINATION><RA_OF_ASC_NODE>358.4425</RA_OF_ASC_NODE><ARG_OF_PERICENTER>80.8177</ARG_OF_PERICENTER><MEAN_ANOMALY>279.3193</MEAN_ANOMALY></meanElements><tleParameters><EPHEMERIS_TYPE>0</EPHEMERIS_TYPE><CLASSIFICATION_TYPE>U</CLASSIFICATION_TYPE><NORAD_CAT_ID>48797</NORAD_CAT_ID><ELEMENT_SET_NO>999</ELEMENT_SET_NO><REV_AT_EPOCH>17985</REV_AT_EPOCH><BSTAR>.63616E-4</BSTAR><MEAN_MOTION_DOT>.37E-6</MEAN_MOTION_DOT><MEAN_MOTION_DDOT>0</MEAN_MOTION_DDOT></tleParameters></data></segment></body></omm>
<omm id="CCSDS_OMM_VERS" version="2.0">
<header><CREATION_DATE/><ORIGINATOR/></header><body><segment><metadata><OBJECT_NAME>ONEWEB-0248</OBJECT_NAME><OBJECT_ID>2021-045AH</OBJECT_ID><CENTER_NAME>EARTH</CENTER_NAME><REF_FRAME>TEME</REF_FRAME><TIME_SYSTEM>UTC</TIME_SYSTEM><MEAN_ELEMENT_THEORY>SGP4</MEAN_ELEMENT_THEORY></metadata><data><meanElements><EPOCH>2025-02-03T20:39:41.912064</EPOCH><MEAN_MOTION>13.15549793</MEAN_MOTION><ECCENTRICITY>.0002455</ECCENTRICITY><INCLINATION>87.9109</INCLINATION><RA_OF_ASC_NODE>358.4087</RA_OF_ASC_NODE><ARG_OF_PERICENTER>95.5053</ARG_OF_PERICENTER><MEAN_ANOMALY>264.6357</MEAN_ANOMALY></meanElements><tleParameters><EPHEMERIS_TYPE>0</EPHEMERIS_TYPE><CLASSIFICATION_TYPE>U</CLASSIFICATION_TYPE><NORAD_CAT_ID>48798</NORAD_CAT_ID><ELEMENT_SET_NO>999</ELEMENT_SET_NO><REV_AT_EPOCH>18001</REV_AT_EPOCH><BSTAR>.13337E-3</BSTAR><MEAN_MOTION_DOT>.63E-6</MEAN_MOTION_DOT><MEAN_MOTION_DDOT>0</MEAN_MOTION_DDOT></tleParameters></data></segment></body></omm>
<omm id="CCSDS_OMM_VERS" version="2.0">
<header><CREATION_DATE/><ORIGINATOR/></header><body><segment><metadata><OBJECT_NAME>ONEWEB-0225</OBJECT_NAME><OBJECT_ID>2021-045AJ</OBJECT_ID><CENTER_NAME>EARTH</CENTER_NAME><REF_FRAME>TEME</REF_FRAME><TIME_SYSTEM>UTC</TIME_SYSTEM><MEAN_ELEMENT_THEORY>SGP4</MEAN_ELEMENT_THEORY></metadata><data><meanElements><EPOCH>2025-02-03T10:14:29.978304</EPOCH><MEAN_MOTION>13.15547426</MEAN_MOTION><ECCENTRICITY>.0002093</ECCENTRICITY><INCLINATION>87.9109</INCLINATION><RA_OF_ASC_NODE>358.5186</RA_OF_ASC_NODE><ARG_OF_PERICENTER>89.2309</ARG_OF_PERICENTER><MEAN_ANOMALY>270.9061</MEAN_ANOMALY></meanElements><tleParameters><EPHEMERIS_TYPE>0</EPHEMERIS_TYPE><CLASSIFICATION_TYPE>U</CLASSIFICATION_TYPE><NORAD_CAT_ID>48799</NORAD_CAT_ID><ELEMENT_SET_NO>999</ELEMENT_SET_NO><REV_AT_EPOCH>17884</REV_AT_EPOCH><BSTAR>.58063E-3</BSTAR><MEAN_MOTION_DOT>.231E-5</MEAN_MOTION_DOT><MEAN_MOTION_DDOT>0</MEAN_MOTION_DDOT></tleParameters></data></segment></body></omm>
<omm id="CCSDS_OMM_VERS" version="2.0">
<header><CREATION_DATE/><ORIGINATOR/></header><body><segment><metadata><OBJECT_NAME>ONEWEB-0215</OBJECT_NAME><OBJECT_ID>2021-045AK</OBJECT_ID><CENTER_NAME>EARTH</CENTER_NAME><REF_FRAME>TEME</REF_FRAME><TIME_SYSTEM>UTC</TIME_SYSTEM><MEAN_ELEMENT_THEORY>SGP4</MEAN_ELEMENT_THEORY></metadata><data><meanElements><EPOCH>2025-02-03T20:28:16.825728</EPOCH><MEAN_MOTION>13.15549678</MEAN_MOTION><ECCENTRICITY>.0002399</ECCENTRICITY><INCLINATION>87.9101</INCLINATION><RA_OF_ASC_NODE>358.3952</RA_OF_ASC_NODE><ARG_OF_PERICENTER>98.7393</ARG_OF_PERICENTER><MEAN_ANOMALY>261.4009</MEAN_ANOMALY></meanElements><tleParameters><EPHEMERIS_TYPE>0</EPHEMERIS_TYPE><CLASSIFICATION_TYPE>U</CLASSIFICATION_TYPE><NORAD_CAT_ID>48800</NORAD_CAT_ID><ELEMENT_SET_NO>999</ELEMENT_SET_NO><REV_AT_EPOCH>17989</REV_AT_EPOCH><BSTAR>-.62381E-4</BSTAR><MEAN_MOTION_DOT>-.11E-6</MEAN_MOTION_DOT><MEAN_MOTION_DDOT>0</MEAN_MOTION_DDOT></tleParameters></data></segment></body></omm>
<omm id="CCSDS_OMM_VERS" version="2.0">
<header><CREATION_DATE/><ORIGINATOR/></header><body><segment><metadata><OBJECT_NAME>ONEWEB-0216</OBJECT_NAME><OBJECT_ID>2021-045AL</OBJECT_ID><CENTER_NAME>EARTH</CENTER_NAME><REF_FRAME>TEME</REF_FRAME><TIME_SYSTEM>UTC</TIME_SYSTEM><MEAN_ELEMENT_THEORY>SGP4</MEAN_ELEMENT_THEORY></metadata><data><meanElements><EPOCH>2025-02-03T09:44:50.918496</EPOCH><MEAN_MOTION>13.15549202</MEAN_MOTION><ECCENTRICITY>.000159</ECCENTRICITY><INCLINATION>87.9101</INCLINATION><RA_OF_ASC_NODE>358.5279</RA_OF_ASC_NODE><ARG_OF_PERICENTER>87.2794</ARG_OF_PERICENTER><MEAN_ANOMALY>272.8519</MEAN_ANOMALY></meanElements><tleParameters><EPHEMERIS_TYPE>0</EPHEMERIS_TYPE><CLASSIFICATION_TYPE>U</CLASSIFICATION_TYPE><NORAD_CAT_ID>48801</NORAD_CAT_ID><ELEMENT_SET_NO>999</ELEMENT_SET_NO><REV_AT_EPOCH>17872</REV_AT_EPOCH><BSTAR>.33306E-3</BSTAR><MEAN_MOTION_DOT>.138E-5</MEAN_MOTION_DOT><MEAN_MOTION_DDOT>0</MEAN_MOTION_DDOT></tleParameters></data></segment></body></omm>
<omm id="CCSDS_OMM_VERS" version="2.0">
<header><CREATION_DATE/><ORIGINATOR/></header><body><segment><metadata><OBJECT_NAME>ONEWEB-0239</OBJECT_NAME><OBJECT_ID>2021-045AM</OBJECT_ID><CENTER_NAME>EARTH</CENTER_NAME><REF_FRAME>TEME</REF_FRAME><TIME_SYSTEM>UTC</TIME_SYSTEM><MEAN_ELEMENT_THEORY>SGP4</MEAN_ELEMENT_THEORY></metadata><data><meanElements><EPOCH>2025-02-03T20:48:50.288544</EPOCH><MEAN_MOTION>13.15549488</MEAN_MOTION><ECCENTRICITY>.0002655</ECCENTRICITY><INCLINATION>87.9109</INCLINATION><RA_OF_ASC_NODE>358.4330</RA_OF_ASC_NODE><ARG_OF_PERICENTER>96.7671</ARG_OF_PERICENTER><MEAN_ANOMALY>263.3762</MEAN_ANOMALY></meanElements><tleParameters><EPHEMERIS_TYPE>0</EPHEMERIS_TYPE><CLASSIFICATION_TYPE>U</CLASSIFICATION_TYPE><NORAD_CAT_ID>48802</NORAD_CAT_ID><ELEMENT_SET_NO>999</ELEMENT_SET_NO><REV_AT_EPOCH>17996</REV_AT_EPOCH><BSTAR>.46859E-3</BSTAR><MEAN_MOTION_DOT>.189E-5</MEAN_MOTION_DOT><MEAN_MOTION_DDOT>0</MEAN_MOTION_DDOT></tleParameters></data></segment></body></omm>

</ndm>
